start=new Date('2023-01-13T00:00:00.000Z').valueOf();
sats=[{"GP_ID":"222885998","PERIAPSIS":"546.234","MEAN_MOTION":"15.06392003","SEMIMAJOR_AXIS":"6925.373","FILE":"3742227","NORAD_CAT_ID":"45376","OBJECT_TYPE":"PAYLOAD","CENTER_NAME":"EARTH","ARG_OF_PERICENTER":"91.8855","COUNTRY_CODE":"US","OBJECT_NAME":"STARLINK-1304","LAUNCH_DATE":"2020-03-18","REV_AT_EPOCH":"15613","INCLINATION":"53.0568","CLASSIFICATION_TYPE":"U","ECCENTRICITY":"0.00014500","TIME_SYSTEM":"UTC","OBJECT_ID":"2020-019S","EPOCH":"2023-01-12T22:43:05.718144","MEAN_ELEMENT_THEORY":"SGP4","RCS_SIZE":"LARGE","EPHEMERIS_TYPE":"0","TLE_LINE1":"1 45376U 20019S   23012.94659396  .00000289  00000-0  38305-4 0  9998","RA_OF_ASC_NODE":"296.9923","DECAY_DATE":null,"BSTAR":"0.00003830500000","TLE_LINE2":"2 45376  53.0568 296.9923 0001450  91.8855 268.2300 15.06392003156136","MEAN_MOTION_DDOT":"0.0000000000000","MEAN_ANOMALY":"268.2300","APOAPSIS":"548.242","PERIOD":"95.593","REF_FRAME":"TEME","MEAN_MOTION_DOT":"0.00000289","SITE":"AFETR","ELEMENT_SET_NO":"999"},{"SEMIMAJOR_AXIS":"6925.354","MEAN_MOTION":"15.06398268","PERIAPSIS":"545.853","GP_ID":"222864004","OBJECT_NAME":"STARLINK-1305","COUNTRY_CODE":"US","ARG_OF_PERICENTER":"55.7160","CENTER_NAME":"EARTH","OBJECT_TYPE":"PAYLOAD","NORAD_CAT_ID":"45377","FILE":"3742092","CLASSIFICATION_TYPE":"U","LAUNCH_DATE":"2020-03-18","REV_AT_EPOCH":"15615","INCLINATION":"53.0556","EPOCH":"2023-01-13T00:55:46.717824","MEAN_ELEMENT_THEORY":"SGP4","OBJECT_ID":"2020-019T","TIME_SYSTEM":"UTC","ECCENTRICITY":"0.00019720","TLE_LINE1":"1 45377U 20019T   23013.03873516  .00000763  00000-0  70108-4 0  9996","EPHEMERIS_TYPE":"0","RCS_SIZE":"LARGE","BSTAR":"0.00007010800000","DECAY_DATE":null,"RA_OF_ASC_NODE":"296.5739","APOAPSIS":"548.585","PERIOD":"95.592","MEAN_ANOMALY":"304.4015","MEAN_MOTION_DDOT":"0.0000000000000","TLE_LINE2":"2 45377  53.0556 296.5739 0001972  55.7160 304.4015 15.06398268156159","ELEMENT_SET_NO":"999","SITE":"AFETR","MEAN_MOTION_DOT":"0.00000763","REF_FRAME":"TEME"},{"REV_AT_EPOCH":"15612","LAUNCH_DATE":"2020-03-18","INCLINATION":"53.0537","CLASSIFICATION_TYPE":"U","ECCENTRICITY":"0.00021410","TIME_SYSTEM":"UTC","OBJECT_ID":"2020-019U","MEAN_ELEMENT_THEORY":"SGP4","EPOCH":"2023-01-12T19:53:15.891360","GP_ID":"222887495","PERIAPSIS":"545.752","SEMIMAJOR_AXIS":"6925.370","MEAN_MOTION":"15.06393159","FILE":"3742227","NORAD_CAT_ID":"45378","OBJECT_TYPE":"PAYLOAD","CENTER_NAME":"EARTH","ARG_OF_PERICENTER":"91.5542","COUNTRY_CODE":"US","OBJECT_NAME":"STARLINK-1310","TLE_LINE2":"2 45378  53.0537 297.5299 0002141  91.5542 268.5692 15.06393159156124","MEAN_MOTION_DDOT":"0.0000000000000","APOAPSIS":"548.717","MEAN_ANOMALY":"268.5692","PERIOD":"95.593","REF_FRAME":"TEME","MEAN_MOTION_DOT":"-0.00001227","SITE":"AFETR","ELEMENT_SET_NO":"999","RCS_SIZE":"LARGE","EPHEMERIS_TYPE":"0","TLE_LINE1":"1 45378U 20019U   23012.82865615 -.00001227  00000-0 -63507-4 0  9997","RA_OF_ASC_NODE":"297.5299","DECAY_DATE":null,"BSTAR":"-0.00006350700000"},{"OBJECT_ID":"2020-019V","EPOCH":"2023-01-12T23:09:39.360960","MEAN_ELEMENT_THEORY":"SGP4","TIME_SYSTEM":"UTC","ECCENTRICITY":"0.00022450","INCLINATION":"53.0543","LAUNCH_DATE":"2020-03-18","REV_AT_EPOCH":"15614","CLASSIFICATION_TYPE":"U","ARG_OF_PERICENTER":"84.1135","COUNTRY_CODE":"US","OBJECT_NAME":"STARLINK-1319","NORAD_CAT_ID":"45379","FILE":"3741929","OBJECT_TYPE":"PAYLOAD","CENTER_NAME":"EARTH","PERIAPSIS":"545.650","SEMIMAJOR_AXIS":"6925.340","MEAN_MOTION":"15.06402906","GP_ID":"222860041","SITE":"AFETR","ELEMENT_SET_NO":"999","REF_FRAME":"TEME","MEAN_MOTION_DOT":"0.00015340","MEAN_MOTION_DDOT":"0.0000000000000","MEAN_ANOMALY":"276.0110","APOAPSIS":"548.759","PERIOD":"95.592","TLE_LINE2":"2 45379  53.0543 296.9134 0002245  84.1135 276.0110 15.06402906156146","DECAY_DATE":null,"BSTAR":"0.00104640000000","RA_OF_ASC_NODE":"296.9134","TLE_LINE1":"1 45379U 20019V   23012.96503890  .00015340  00000-0  10464-2 0  9998","RCS_SIZE":"LARGE","EPHEMERIS_TYPE":"0"},{"ECCENTRICITY":"0.00013920","TIME_SYSTEM":"UTC","EPOCH":"2023-01-12T21:31:26.171616","MEAN_ELEMENT_THEORY":"SGP4","OBJECT_ID":"2020-019W","CLASSIFICATION_TYPE":"U","REV_AT_EPOCH":"15640","LAUNCH_DATE":"2020-03-18","INCLINATION":"53.0536","OBJECT_TYPE":"PAYLOAD","NORAD_CAT_ID":"45380","FILE":"3742227","CENTER_NAME":"EARTH","COUNTRY_CODE":"US","ARG_OF_PERICENTER":"74.0015","OBJECT_NAME":"STARLINK-1207","GP_ID":"222886497","MEAN_MOTION":"15.06393974","SEMIMAJOR_AXIS":"6925.367","PERIAPSIS":"546.268","REF_FRAME":"TEME","MEAN_MOTION_DOT":"-0.00002247","SITE":"AFETR","ELEMENT_SET_NO":"999","TLE_LINE2":"2 45380  53.0536 277.2235 0001392  74.0015 286.1127 15.06393974156404","MEAN_MOTION_DDOT":"0.0000000000000","PERIOD":"95.593","APOAPSIS":"548.196","MEAN_ANOMALY":"286.1127","RA_OF_ASC_NODE":"277.2235","DECAY_DATE":null,"BSTAR":"-0.00013204000000","EPHEMERIS_TYPE":"0","RCS_SIZE":"LARGE","TLE_LINE1":"1 45380U 20019W   23012.89683069 -.00002247  00000-0 -13204-3 0  9999"},{"PERIAPSIS":"546.182","MEAN_MOTION":"15.06397960","SEMIMAJOR_AXIS":"6925.355","GP_ID":"222886749","OBJECT_NAME":"STARLINK-1258","ARG_OF_PERICENTER":"78.7905","COUNTRY_CODE":"US","CENTER_NAME":"EARTH","NORAD_CAT_ID":"45381","FILE":"3742227","OBJECT_TYPE":"PAYLOAD","INCLINATION":"53.0557","LAUNCH_DATE":"2020-03-18","REV_AT_EPOCH":"15640","CLASSIFICATION_TYPE":"U","OBJECT_ID":"2020-019X","EPOCH":"2023-01-12T21:47:21.585408","MEAN_ELEMENT_THEORY":"SGP4","ECCENTRICITY":"0.00014980","TIME_SYSTEM":"UTC","TLE_LINE1":"1 45381U 20019X   23012.90788872  .00000222  00000-0  33822-4 0  9998","RCS_SIZE":"LARGE","EPHEMERIS_TYPE":"0","BSTAR":"0.00003382200000","DECAY_DATE":null,"RA_OF_ASC_NODE":"277.1820","PERIOD":"95.592","APOAPSIS":"548.257","MEAN_ANOMALY":"281.3252","MEAN_MOTION_DDOT":"0.0000000000000","TLE_LINE2":"2 45381  53.0557 277.1820 0001498  78.7905 281.3252 15.06397960156408","ELEMENT_SET_NO":"999","SITE":"AFETR","MEAN_MOTION_DOT":"0.00000222","REF_FRAME":"TEME"},{"GP_ID":"222886997","PERIAPSIS":"529.830","SEMIMAJOR_AXIS":"6909.431","MEAN_MOTION":"15.11608394","NORAD_CAT_ID":"45382","FILE":"3742227","OBJECT_TYPE":"PAYLOAD","CENTER_NAME":"EARTH","ARG_OF_PERICENTER":"92.0827","COUNTRY_CODE":"US","OBJECT_NAME":"STARLINK-1264","LAUNCH_DATE":"2020-03-18","REV_AT_EPOCH":"15625","INCLINATION":"53.0509","CLASSIFICATION_TYPE":"U","TIME_SYSTEM":"UTC","ECCENTRICITY":"0.00021220","OBJECT_ID":"2020-019Y","MEAN_ELEMENT_THEORY":"SGP4","EPOCH":"2023-01-12T21:26:51.430848","RCS_SIZE":"LARGE","EPHEMERIS_TYPE":"0","TLE_LINE1":"1 45382U 20019Y   23012.89365082  .00038818  00000-0  22644-2 0  9991","RA_OF_ASC_NODE":"275.1973","DECAY_DATE":null,"BSTAR":"0.00226440000000","TLE_LINE2":"2 45382  53.0509 275.1973 0002122  92.0827 268.0408 15.11608394156250","MEAN_MOTION_DDOT":"0.0000000000000","MEAN_ANOMALY":"268.0408","APOAPSIS":"532.763","PERIOD":"95.263","REF_FRAME":"TEME","MEAN_MOTION_DOT":"0.00038818","SITE":"AFETR","ELEMENT_SET_NO":"999"},{"BSTAR":"0.00028960000000","DECAY_DATE":null,"RA_OF_ASC_NODE":"276.6207","TLE_LINE1":"1 45383U 20019Z   23013.03318442  .00004038  00000-0  28960-3 0  9992","EPHEMERIS_TYPE":"0","RCS_SIZE":"LARGE","ELEMENT_SET_NO":"999","SITE":"AFETR","MEAN_MOTION_DOT":"0.00004038","REF_FRAME":"TEME","APOAPSIS":"548.242","PERIOD":"95.590","MEAN_ANOMALY":"291.5251","MEAN_MOTION_DDOT":"0.0000000000000","TLE_LINE2":"2 45383  53.0552 276.6207 0001611  68.5910 291.5251 15.06428548156429","OBJECT_NAME":"STARLINK-1266","COUNTRY_CODE":"US","ARG_OF_PERICENTER":"68.5910","CENTER_NAME":"EARTH","OBJECT_TYPE":"PAYLOAD","FILE":"3742091","NORAD_CAT_ID":"45383","SEMIMAJOR_AXIS":"6925.261","MEAN_MOTION":"15.06428548","PERIAPSIS":"546.010","GP_ID":"222864491","EPOCH":"2023-01-13T00:47:47.133888","MEAN_ELEMENT_THEORY":"SGP4","OBJECT_ID":"2020-019Z","ECCENTRICITY":"0.00016110","TIME_SYSTEM":"UTC","CLASSIFICATION_TYPE":"U","LAUNCH_DATE":"2020-03-18","INCLINATION":"53.0552","REV_AT_EPOCH":"15642"},{"EPOCH":"2023-01-13T00:30:30.311424","MEAN_ELEMENT_THEORY":"SGP4","OBJECT_ID":"2020-019AA","TIME_SYSTEM":"UTC","ECCENTRICITY":"0.00016520","CLASSIFICATION_TYPE":"U","LAUNCH_DATE":"2020-03-18","INCLINATION":"53.0550","REV_AT_EPOCH":"15642","COUNTRY_CODE":"US","ARG_OF_PERICENTER":"52.2766","OBJECT_NAME":"STARLINK-1267","OBJECT_TYPE":"PAYLOAD","FILE":"3742091","NORAD_CAT_ID":"45384","CENTER_NAME":"EARTH","MEAN_MOTION":"15.06415675","SEMIMAJOR_AXIS":"6925.301","PERIAPSIS":"546.021","GP_ID":"222863989","SITE":"AFETR","ELEMENT_SET_NO":"999","REF_FRAME":"TEME","MEAN_MOTION_DOT":"0.00002837","MEAN_MOTION_DDOT":"0.0000000000000","APOAPSIS":"548.310","MEAN_ANOMALY":"307.8372","PERIOD":"95.591","TLE_LINE2":"2 45384  53.0550 276.6612 0001652  52.2766 307.8372 15.06415675156424","DECAY_DATE":null,"BSTAR":"0.00020917000000","RA_OF_ASC_NODE":"276.6612","TLE_LINE1":"1 45384U 20019AA  23013.02118416  .00002837  00000-0  20917-3 0  9990","EPHEMERIS_TYPE":"0","RCS_SIZE":"LARGE"},{"SEMIMAJOR_AXIS":"6925.378","MEAN_MOTION":"15.06390434","PERIAPSIS":"546.304","GP_ID":"222887249","OBJECT_NAME":"STARLINK-1272","COUNTRY_CODE":"US","ARG_OF_PERICENTER":"79.6525","CENTER_NAME":"EARTH","OBJECT_TYPE":"PAYLOAD","NORAD_CAT_ID":"45386","FILE":"3742227","CLASSIFICATION_TYPE":"U","LAUNCH_DATE":"2020-03-18","REV_AT_EPOCH":"15640","INCLINATION":"53.0537","MEAN_ELEMENT_THEORY":"SGP4","EPOCH":"2023-01-12T21:26:09.050784","OBJECT_ID":"2020-019AC","ECCENTRICITY":"0.00013560","TIME_SYSTEM":"UTC","TLE_LINE1":"1 45386U 20019AC  23012.89316031  .00001013  00000-0  86916-4 0  9996","EPHEMERIS_TYPE":"0","RCS_SIZE":"LARGE","BSTAR":"0.00008691600000","DECAY_DATE":null,"RA_OF_ASC_NODE":"277.2332","MEAN_ANOMALY":"280.4617","APOAPSIS":"548.182","PERIOD":"95.593","MEAN_MOTION_DDOT":"0.0000000000000","TLE_LINE2":"2 45386  53.0537 277.2332 0001356  79.6525 280.4617 15.06390434156405","ELEMENT_SET_NO":"999","SITE":"AFETR","MEAN_MOTION_DOT":"0.00001013","REF_FRAME":"TEME"}];
